SL-16 R/B               
1 22566U 93016B   26048.77825177 -.00000215  00000+0 -85670-4 0  9993
2 22566  71.0045 257.0032 0010594 341.2078  18.8652 14.15300512699357
COSMOS 2242             
1 22626U 93024A   26048.71042889  .00001730  00000+0  14977-3 0  9996
2 22626  82.5177 285.8281 0016907  17.6598 342.5208 14.96464205777403
SL-16 R/B               
1 22803U 93059B   26048.43181220 -.00000143  00000+0 -47130-4 0  9990
2 22803  70.9891  53.8463 0019328 244.4621 115.4505 14.17227592676668
ARIANE 40 R/B           
1 22830U 93061H   26048.72698170  .00000190  00000+0  85516-4 0  9992
2 22830  98.4960 118.0043 0010228 349.5223  10.5747 14.32849863691245
COSMOS 2278             
1 23087U 94023A   26048.72428648  .00000171  00000+0  11384-3 0  9997
2 23087  71.0506 216.8667 0007032  52.8744 307.3020 14.14364771641980
SL-16 R/B               
1 23088U 94023B   26048.63842662  .00000355  00000+0  20813-3 0  9995
2 23088  70.9993 113.0000 0004782 304.6507  55.4164 14.15008102643258
SL-16 R/B               
1 23343U 94074B   26048.71667235  .00000440  00000+0  65710-4 0  9996
2 23343  97.7136  80.3408 0005153 290.9817 190.4073 14.79383150684297
SL-16 R/B               
1 23405U 94077B   26048.41586142  .00000249  00000+0  15192-3 0  9997
2 23405  70.9830  35.1396 0003950 230.6415 129.4358 14.15562468613361
ARIANE 40+ R/B          
1 23561U 95021B   26048.74263742  .00000282  00000+0  10403-3 0  9991
2 23561  98.4540 120.4914 0006637 191.7852 281.9955 14.39757215616371
SL-16 R/B               
1 23705U 95058B   26048.77517673 -.00000086  00000+0 -19495-4 0  9994
2 23705  71.0199 222.0634 0011569 159.9873 200.1707 14.15495889565039
SL-16 R/B               
1 24298U 96051B   26048.76944356  .00000079  00000+0  69667-4 0  9993
2 24298  70.7572 217.4012 0016833 176.3751 183.7494 14.12409971518832
ORBVIEW 2 (SEASTAR)     
1 24883U 97037A   26048.41327759  .00000291  00000+0  11740-3 0  9996
2 24883  98.8529 212.1917 0003144 112.4078 247.7440 14.35478709505563
