CCSDS_OMM_VERS = 2.0
CREATION_DATE  = 
ORIGINATOR     = 

OBJECT_NAME    = SL-16 R/B
OBJECT_ID      = 1993-016B
CENTER_NAME    = EARTH
REF_FRAME      = TEME
TIME_SYSTEM    = UTC
MEAN_ELEMENT_THEORY = SGP/SGP4

EPOCH          = 2026-02-17T18:40:40.952928
MEAN_MOTION    = 14.15300512
ECCENTRICITY   = .00105945
INCLINATION    = 71.0045
RA_OF_ASC_NODE = 257.0032
ARG_OF_PERICENTER = 341.2078
MEAN_ANOMALY   = 18.8652

EPHEMERIS_TYPE = 0
CLASSIFICATION_TYPE = U
NORAD_CAT_ID   = 22566
ELEMENT_SET_NO = 999
REV_AT_EPOCH   = 69935
BSTAR          = -.85670093E-4
MEAN_MOTION_DOT = -.215E-5
MEAN_MOTION_DDOT = 0

CCSDS_OMM_VERS = 2.0
CREATION_DATE  = 
ORIGINATOR     = 

OBJECT_NAME    = COSMOS 2242
OBJECT_ID      = 1993-024A
CENTER_NAME    = EARTH
REF_FRAME      = TEME
TIME_SYSTEM    = UTC
MEAN_ELEMENT_THEORY = SGP/SGP4

EPOCH          = 2026-02-17T17:03:01.056096
MEAN_MOTION    = 14.96464205
ECCENTRICITY   = .00169079
INCLINATION    = 82.5177
RA_OF_ASC_NODE = 285.8281
ARG_OF_PERICENTER = 17.6598
MEAN_ANOMALY   = 342.5208

EPHEMERIS_TYPE = 0
CLASSIFICATION_TYPE = U
NORAD_CAT_ID   = 22626
ELEMENT_SET_NO = 999
REV_AT_EPOCH   = 77740
BSTAR          = .14977419E-3
MEAN_MOTION_DOT = .173E-4
MEAN_MOTION_DDOT = 0

CCSDS_OMM_VERS = 2.0
CREATION_DATE  = 
ORIGINATOR     = 

OBJECT_NAME    = SL-16 R/B
OBJECT_ID      = 1993-059B
CENTER_NAME    = EARTH
REF_FRAME      = TEME
TIME_SYSTEM    = UTC
MEAN_ELEMENT_THEORY = SGP/SGP4

EPOCH          = 2026-02-17T10:21:48.574080
MEAN_MOTION    = 14.17227592
ECCENTRICITY   = .00193285
INCLINATION    = 70.9891
RA_OF_ASC_NODE = 53.8463
ARG_OF_PERICENTER = 244.4621
MEAN_ANOMALY   = 115.4505

EPHEMERIS_TYPE = 0
CLASSIFICATION_TYPE = U
NORAD_CAT_ID   = 22803
ELEMENT_SET_NO = 999
REV_AT_EPOCH   = 67666
BSTAR          = -.47130114E-4
MEAN_MOTION_DOT = -.143E-5
MEAN_MOTION_DDOT = 0

CCSDS_OMM_VERS = 2.0
CREATION_DATE  = 
ORIGINATOR     = 

OBJECT_NAME    = ARIANE 40 R/B
OBJECT_ID      = 1993-061H
CENTER_NAME    = EARTH
REF_FRAME      = TEME
TIME_SYSTEM    = UTC
MEAN_ELEMENT_THEORY = SGP/SGP4

EPOCH          = 2026-02-17T17:26:51.218880
MEAN_MOTION    = 14.32849863
ECCENTRICITY   = .00102287
INCLINATION    = 98.4960
RA_OF_ASC_NODE = 118.0043
ARG_OF_PERICENTER = 349.5223
MEAN_ANOMALY   = 10.5747

EPHEMERIS_TYPE = 0
CLASSIFICATION_TYPE = U
NORAD_CAT_ID   = 22830
ELEMENT_SET_NO = 999
REV_AT_EPOCH   = 69124
BSTAR          = .85516433E-4
MEAN_MOTION_DOT = .19E-5
MEAN_MOTION_DDOT = 0

CCSDS_OMM_VERS = 2.0
CREATION_DATE  = 
ORIGINATOR     = 

OBJECT_NAME    = COSMOS 2278
OBJECT_ID      = 1994-023A
CENTER_NAME    = EARTH
REF_FRAME      = TEME
TIME_SYSTEM    = UTC
MEAN_ELEMENT_THEORY = SGP/SGP4

EPOCH          = 2026-02-17T17:22:58.351872
MEAN_MOTION    = 14.14364771
ECCENTRICITY   = .00070328
INCLINATION    = 71.0506
RA_OF_ASC_NODE = 216.8667
ARG_OF_PERICENTER = 52.8744
MEAN_ANOMALY   = 307.3020

EPHEMERIS_TYPE = 0
CLASSIFICATION_TYPE = U
NORAD_CAT_ID   = 23087
ELEMENT_SET_NO = 999
REV_AT_EPOCH   = 64198
BSTAR          = .1138393E-3
MEAN_MOTION_DOT = .171E-5
MEAN_MOTION_DDOT = 0

CCSDS_OMM_VERS = 2.0
CREATION_DATE  = 
ORIGINATOR     = 

OBJECT_NAME    = SL-16 R/B
OBJECT_ID      = 1994-023B
CENTER_NAME    = EARTH
REF_FRAME      = TEME
TIME_SYSTEM    = UTC
MEAN_ELEMENT_THEORY = SGP/SGP4

EPOCH          = 2026-02-17T15:19:20.059968
MEAN_MOTION    = 14.15008102
ECCENTRICITY   = .00047829
INCLINATION    = 70.9993
RA_OF_ASC_NODE = 113.0000
ARG_OF_PERICENTER = 304.6507
MEAN_ANOMALY   = 55.4164

EPHEMERIS_TYPE = 0
CLASSIFICATION_TYPE = U
NORAD_CAT_ID   = 23088
ELEMENT_SET_NO = 999
REV_AT_EPOCH   = 64325
BSTAR          = .20812782E-3
MEAN_MOTION_DOT = .355E-5
MEAN_MOTION_DDOT = 0

CCSDS_OMM_VERS = 2.0
CREATION_DATE  = 
ORIGINATOR     = 

OBJECT_NAME    = SL-16 R/B
OBJECT_ID      = 1994-074B
CENTER_NAME    = EARTH
REF_FRAME      = TEME
TIME_SYSTEM    = UTC
MEAN_ELEMENT_THEORY = SGP/SGP4

EPOCH          = 2026-02-17T17:12:00.491040
MEAN_MOTION    = 14.79383150
ECCENTRICITY   = .00051535
INCLINATION    = 97.7136
RA_OF_ASC_NODE = 80.3408
ARG_OF_PERICENTER = 290.9817
MEAN_ANOMALY   = 190.4073

EPHEMERIS_TYPE = 0
CLASSIFICATION_TYPE = U
NORAD_CAT_ID   = 23343
ELEMENT_SET_NO = 999
REV_AT_EPOCH   = 68429
BSTAR          = .65709964E-4
MEAN_MOTION_DOT = .44E-5
MEAN_MOTION_DDOT = 0

CCSDS_OMM_VERS = 2.0
CREATION_DATE  = 
ORIGINATOR     = 

OBJECT_NAME    = SL-16 R/B
OBJECT_ID      = 1994-077B
CENTER_NAME    = EARTH
REF_FRAME      = TEME
TIME_SYSTEM    = UTC
MEAN_ELEMENT_THEORY = SGP/SGP4

EPOCH          = 2026-02-17T09:58:50.426688
MEAN_MOTION    = 14.15562468
ECCENTRICITY   = .00039503
INCLINATION    = 70.9830
RA_OF_ASC_NODE = 35.1396
ARG_OF_PERICENTER = 230.6415
MEAN_ANOMALY   = 129.4358

EPHEMERIS_TYPE = 0
CLASSIFICATION_TYPE = U
NORAD_CAT_ID   = 23405
ELEMENT_SET_NO = 999
REV_AT_EPOCH   = 61336
BSTAR          = .15192445E-3
MEAN_MOTION_DOT = .249E-5
MEAN_MOTION_DDOT = 0

CCSDS_OMM_VERS = 2.0
CREATION_DATE  = 
ORIGINATOR     = 

OBJECT_NAME    = ARIANE 40+ R/B
OBJECT_ID      = 1995-021B
CENTER_NAME    = EARTH
REF_FRAME      = TEME
TIME_SYSTEM    = UTC
MEAN_ELEMENT_THEORY = SGP/SGP4

EPOCH          = 2026-02-17T17:49:23.873088
MEAN_MOTION    = 14.39757215
ECCENTRICITY   = .00066377
INCLINATION    = 98.4540
RA_OF_ASC_NODE = 120.4914
ARG_OF_PERICENTER = 191.7852
MEAN_ANOMALY   = 281.9955

EPHEMERIS_TYPE = 0
CLASSIFICATION_TYPE = U
NORAD_CAT_ID   = 23561
ELEMENT_SET_NO = 999
REV_AT_EPOCH   = 61637
BSTAR          = .10403046E-3
MEAN_MOTION_DOT = .282E-5
MEAN_MOTION_DDOT = 0

CCSDS_OMM_VERS = 2.0
CREATION_DATE  = 
ORIGINATOR     = 

OBJECT_NAME    = SL-16 R/B
OBJECT_ID      = 1995-058B
CENTER_NAME    = EARTH
REF_FRAME      = TEME
TIME_SYSTEM    = UTC
MEAN_ELEMENT_THEORY = SGP/SGP4

EPOCH          = 2026-02-17T18:36:15.269472
MEAN_MOTION    = 14.15495889
ECCENTRICITY   = .00115697
INCLINATION    = 71.0199
RA_OF_ASC_NODE = 222.0634
ARG_OF_PERICENTER = 159.9873
MEAN_ANOMALY   = 200.1707

EPHEMERIS_TYPE = 0
CLASSIFICATION_TYPE = U
NORAD_CAT_ID   = 23705
ELEMENT_SET_NO = 999
REV_AT_EPOCH   = 56503
BSTAR          = -.19494959E-4
MEAN_MOTION_DOT = -.86E-6
MEAN_MOTION_DDOT = 0

CCSDS_OMM_VERS = 2.0
CREATION_DATE  = 
ORIGINATOR     = 

OBJECT_NAME    = SL-16 R/B
OBJECT_ID      = 1996-051B
CENTER_NAME    = EARTH
REF_FRAME      = TEME
TIME_SYSTEM    = UTC
MEAN_ELEMENT_THEORY = SGP/SGP4

EPOCH          = 2026-02-17T18:27:59.923584
MEAN_MOTION    = 14.12409971
ECCENTRICITY   = .00168331
INCLINATION    = 70.7572
RA_OF_ASC_NODE = 217.4012
ARG_OF_PERICENTER = 176.3751
MEAN_ANOMALY   = 183.7494

EPHEMERIS_TYPE = 0
CLASSIFICATION_TYPE = U
NORAD_CAT_ID   = 24298
ELEMENT_SET_NO = 999
REV_AT_EPOCH   = 51883
BSTAR          = .69667399E-4
MEAN_MOTION_DOT = .79E-6
MEAN_MOTION_DDOT = 0

CCSDS_OMM_VERS = 2.0
CREATION_DATE  = 
ORIGINATOR     = 

OBJECT_NAME    = ORBVIEW 2 (SEASTAR)
OBJECT_ID      = 1997-037A
CENTER_NAME    = EARTH
REF_FRAME      = TEME
TIME_SYSTEM    = UTC
MEAN_ELEMENT_THEORY = SGP/SGP4

EPOCH          = 2026-02-17T09:55:07.183776
MEAN_MOTION    = 14.35478709
ECCENTRICITY   = .00031443
INCLINATION    = 98.8529
RA_OF_ASC_NODE = 212.1917
ARG_OF_PERICENTER = 112.4078
MEAN_ANOMALY   = 247.7440

EPHEMERIS_TYPE = 0
CLASSIFICATION_TYPE = U
NORAD_CAT_ID   = 24883
ELEMENT_SET_NO = 999
REV_AT_EPOCH   = 50556
BSTAR          = .11740046E-3
MEAN_MOTION_DOT = .291E-5
MEAN_MOTION_DDOT = 0

